[
    {
        "Altitude(m)": 622200.0750233139,
        "Argument of Periapsis(deg)": 0.0,
        "Eccentricity": 0.0,
        "Inclination(deg)": 60.0,
        "Latitude(deg)": -52.16244941750952,
        "Longitude(deg)": 92.36076865363677,
        "Mean Anomaly(deg)": -65.45449999999998,
        "RAAN(deg)": 240.0,
        "Satellite Name": "Test1 1074",
        "Satellite Number": 1074,
        "Semi-Major Axis(m)": 6980739.136638005,
        "Time(s)": 0
    },
    {
        "Altitude(m)": 622058.2426135662,
        "Argument of Periapsis(deg)": 0.00010418945913296404,
        "Eccentricity": 0.0,
        "Inclination(deg)": 60.0,
        "Latitude(deg)": -51.799198903366275,
        "Longitude(deg)": 93.1288248207991,
        "Mean Anomaly(deg)": -64.83439385453813,
        "RAAN(deg)": 239.99957995086024,
        "Satellite Name": "Test1 1074",
        "Satellite Number": 1074,
        "Semi-Major Axis(m)": 6980739.136638005,
        "Time(s)": 10
    },
    {
        "Altitude(m)": 621913.6769267732,
        "Argument of Periapsis(deg)": 0.0002083789182659281,
        "Eccentricity": 0.0,
        "Inclination(deg)": 60.0,
        "Latitude(deg)": -51.430436830740774,
        "Longitude(deg)": 93.88390228343415,
        "Mean Anomaly(deg)": -64.21428770907637,
        "RAAN(deg)": 239.99915990172047,
        "Satellite Name": "Test1 1074",
        "Satellite Number": 1074,
        "Semi-Major Axis(m)": 6980739.136638005,
        "Time(s)": 20
    },
    {
        "Altitude(m)": 621766.4344023672,
        "Argument of Periapsis(deg)": 0.00031256837739889213,
        "Eccentricity": 0.0,
        "Inclination(deg)": 60.0,
        "Latitude(deg)": -51.05632031951278,
        "Longitude(deg)": 94.62619073771221,
        "Mean Anomaly(deg)": -63.59418156361448,
        "RAAN(deg)": 239.99873985258077,
        "Satellite Name": "Test1 1074",
        "Satellite Number": 1074,
        "Semi-Major Axis(m)": 6980739.136638005,
        "Time(s)": 30
    },
    {
        "Altitude(m)": 621616.5724961897,
        "Argument of Periapsis(deg)": 0.0004167578365318562,
        "Eccentricity": 0.0,
        "Inclination(deg)": 60.0,
        "Latitude(deg)": -50.67700279905758,
        "Longitude(deg)": 95.35588764519304,
        "Mean Anomaly(deg)": -62.974075418152715,
        "RAAN(deg)": 239.99831980344103,
        "Satellite Name": "Test1 1074",
        "Satellite Number": 1074,
        "Semi-Major Axis(m)": 6980739.136638005,
        "Time(s)": 40
    },
    {
        "Altitude(m)": 621464.1496558766,
        "Argument of Periapsis(deg)": 0.0005209472956648203,
        "Eccentricity": 0.0,
        "Inclination(deg)": 60.0,
        "Latitude(deg)": -50.29263398124188,
        "Longitude(deg)": 96.07319618300534,
        "Mean Anomaly(deg)": -62.353969272690875,
        "RAAN(deg)": 239.99789975430127,
        "Satellite Name": "Test1 1074",
        "Satellite Number": 1074,
        "Semi-Major Axis(m)": 6980739.136638005,
        "Time(s)": 50
    },
    {
        "Altitude(m)": 621309.2252958098,
        "Argument of Periapsis(deg)": 0.0006251367547977843,
        "Eccentricity": 0.0,
        "Inclination(deg)": 60.0,
        "Latitude(deg)": -49.903359847974436,
        "Longitude(deg)": 96.77832477624038,
        "Mean Anomaly(deg)": -61.73386312722902,
        "RAAN(deg)": 239.9974797051615,
        "Satellite Name": "Test1 1074",
        "Satellite Number": 1074,
        "Semi-Major Axis(m)": 6980739.136638005,
        "Time(s)": 60
    },
    {
        "Altitude(m)": 621151.8597716446,
        "Argument of Periapsis(deg)": 0.0007293262139307483,
        "Eccentricity": 0.0,
        "Inclination(deg)": 60.0,
        "Latitude(deg)": -49.509322651907574,
        "Longitude(deg)": 97.47148669828712,
        "Mean Anomaly(deg)": -61.11375698176721,
        "RAAN(deg)": 239.9970596560218,
        "Satellite Name": "Test1 1074",
        "Satellite Number": 1074,
        "Semi-Major Axis(m)": 6980739.136638005,
        "Time(s)": 70
    },
    {
        "Altitude(m)": 620992.1143544004,
        "Argument of Periapsis(deg)": 0.0008335156730637124,
        "Eccentricity": 0.0,
        "Inclination(deg)": 60.0,
        "Latitude(deg)": -49.11066092895753,
        "Longitude(deg)": 98.15289822441541,
        "Mean Anomaly(deg)": -60.493650836305356,
        "RAAN(deg)": 239.99663960688207,
        "Satellite Name": "Test1 1074",
        "Satellite Number": 1074,
        "Semi-Major Axis(m)": 6980739.136638005,
        "Time(s)": 80
    },
    {
        "Altitude(m)": 620830.0512041339,
        "Argument of Periapsis(deg)": 0.0009377051321966765,
        "Eccentricity": 0.0,
        "Inclination(deg)": 60.0,
        "Latitude(deg)": -48.70750952138384,
        "Longitude(deg)": 98.82277836219123,
        "Mean Anomaly(deg)": -59.87354469084352,
        "RAAN(deg)": 239.9962195577423,
        "Satellite Name": "Test1 1074",
        "Satellite Number": 1074,
        "Semi-Major Axis(m)": 6980739.136638005,
        "Time(s)": 90
    },
    {
        "Altitude(m)": 620665.7333432356,
        "Argument of Periapsis(deg)": 0.0010418945913296407,
        "Eccentricity": 0.0,
        "Inclination(deg)": 60.0,
        "Latitude(deg)": -48.29999961024409,
        "Longitude(deg)": 99.48134864343675,
        "Mean Anomaly(deg)": -59.253438545381655,
        "RAAN(deg)": 239.99579950860254,
        "Satellite Name": "Test1 1074",
        "Satellite Number": 1074,
        "Semi-Major Axis(m)": 6980739.136638005,
        "Time(s)": 100
    },
    {
        "Altitude(m)": 620499.2246293013,
        "Argument of Periapsis(deg)": 0.0011460840504626045,
        "Eccentricity": 0.0,
        "Inclination(deg)": 60.0,
        "Latitude(deg)": -47.88825875611696,
        "Longitude(deg)": 100.12883146224895,
        "Mean Anomaly(deg)": -58.63333239991985,
        "RAAN(deg)": 239.99537945946284,
        "Satellite Name": "Test1 1074",
        "Satellite Number": 1074,
        "Semi-Major Axis(m)": 6980739.136638005,
        "Time(s)": 110
    },
    {
        "Altitude(m)": 620330.5897276325,
        "Argument of Periapsis(deg)": 0.0012502735095955685,
        "Eccentricity": 0.0,
        "Inclination(deg)": 60.0,
        "Latitude(deg)": -47.47241094706265,
        "Longitude(deg)": 100.7654499820609,
        "Mean Anomaly(deg)": -58.013226254458,
        "RAAN(deg)": 239.9949594103231,
        "Satellite Name": "Test1 1074",
        "Satellite Number": 1074,
        "Semi-Major Axis(m)": 6980739.136638005,
        "Time(s)": 120
    },
    {
        "Altitude(m)": 620159.8940833868,
        "Argument of Periapsis(deg)": 0.0013544629687285324,
        "Eccentricity": 0.0,
        "Inclination(deg)": 60.0,
        "Latitude(deg)": -47.05257665286597,
        "Longitude(deg)": 101.39142809602795,
        "Mean Anomaly(deg)": -57.39312010899614,
        "RAAN(deg)": 239.99453936118334,
        "Satellite Name": "Test1 1074",
        "Satellite Number": 1074,
        "Semi-Major Axis(m)": 6980739.136638005,
        "Time(s)": 130
    },
    {
        "Altitude(m)": 619987.203893334,
        "Argument of Periapsis(deg)": 0.0014586524278614966,
        "Eccentricity": 0.0,
        "Inclination(deg)": 60.0,
        "Latitude(deg)": -46.628872884679225,
        "Longitude(deg)": 102.00698892497358,
        "Mean Anomaly(deg)": -56.7730139635343,
        "RAAN(deg)": 239.99411931204355,
        "Satellite Name": "Test1 1074",
        "Satellite Number": 1074,
        "Semi-Major Axis(m)": 6980739.136638005,
        "Time(s)": 140
    },
    {
        "Altitude(m)": 619812.5860773046,
        "Argument of Periapsis(deg)": 0.0015628418869944607,
        "Eccentricity": 0.0,
        "Inclination(deg)": 60.0,
        "Latitude(deg)": -46.20141325925481,
        "Longitude(deg)": 102.612354875726,
        "Mean Anomaly(deg)": -56.15290781807249,
        "RAAN(deg)": 239.99369926290387,
        "Satellite Name": "Test1 1074",
        "Satellite Number": 1074,
        "Semi-Major Axis(m)": 6980739.136638005,
        "Time(s)": 150
    },
    {
        "Altitude(m)": 619636.1082492432,
        "Argument of Periapsis(deg)": 0.0016670313461274247,
        "Eccentricity": 0.0,
        "Inclination(deg)": 60.0,
        "Latitude(deg)": -45.77030806702554,
        "Longitude(deg)": 103.20774774408804,
        "Mean Anomaly(deg)": -55.53280167261064,
        "RAAN(deg)": 239.99327921376414,
        "Satellite Name": "Test1 1074",
        "Satellite Number": 1074,
        "Semi-Major Axis(m)": 6980739.136638005,
        "Time(s)": 160
    },
    {
        "Altitude(m)": 619457.8386880334,
        "Argument of Periapsis(deg)": 0.0017712208052603888,
        "Eccentricity": 0.0,
        "Inclination(deg)": 60.0,
        "Latitude(deg)": -45.33566434335536,
        "Longitude(deg)": 103.79338734672322,
        "Mean Anomaly(deg)": -54.91269552714889,
        "RAAN(deg)": 239.99285916462435,
        "Satellite Name": "Test1 1074",
        "Satellite Number": 1074,
        "Semi-Major Axis(m)": 6980739.136638005,
        "Time(s)": 170
    },
    {
        "Altitude(m)": 619277.8463078882,
        "Argument of Periapsis(deg)": 0.001875410264393353,
        "Eccentricity": 0.0,
        "Inclination(deg)": 60.0,
        "Latitude(deg)": -44.89758594234513,
        "Longitude(deg)": 104.36949170492103,
        "Mean Anomaly(deg)": -54.29258938168704,
        "RAAN(deg)": 239.9924391154846,
        "Satellite Name": "Test1 1074",
        "Satellite Number": 1074,
        "Semi-Major Axis(m)": 6980739.136638005,
        "Time(s)": 180
    },
    {
        "Altitude(m)": 619096.2006285463,
        "Argument of Periapsis(deg)": 0.0019795997235263173,
        "Eccentricity": 0.0,
        "Inclination(deg)": 60.0,
        "Latitude(deg)": -44.45617361263854,
        "Longitude(deg)": 104.93627726467066,
        "Mean Anomaly(deg)": -53.67248323622523,
        "RAAN(deg)": 239.9920190663449,
        "Satellite Name": "Test1 1074",
        "Satellite Number": 1074,
        "Semi-Major Axis(m)": 6980739.136638005,
        "Time(s)": 190
    }
]